[
  {
    "OBJECT_NAME": "STARLINK-31731",
    "OBJECT_ID": "2024-071Q",
    "EPOCH": "2025-05-05T22:09:57.994560",
    "MEAN_MOTION": 15.40715206,
    "ECCENTRICITY": 0.0001595,
    "INCLINATION": 43.0037,
    "RA_OF_ASC_NODE": 281.5807,
    "ARG_OF_PERICENTER": 280.7129,
    "MEAN_ANOMALY": 79.3548,
    "EPHEMERIS_TYPE": 0,
    "CLASSIFICATION_TYPE": "U",
    "NORAD_CAT_ID": 59498,
    "ELEMENT_SET_NO": 999,
    "REV_AT_EPOCH": 6110,
    "BSTAR": -3.9052e-05,
    "MEAN_MOTION_DOT": -1.935e-05,
    "MEAN_MOTION_DDOT": 0
  },
  {
    "OBJECT_NAME": "STARLINK-31742",
    "OBJECT_ID": "2024-071R",
    "EPOCH": "2025-05-06T02:40:21.191232",
    "MEAN_MOTION": 15.40688092,
    "ECCENTRICITY": 0.0001176,
    "INCLINATION": 43.0041,
    "RA_OF_ASC_NODE": 280.4086,
    "ARG_OF_PERICENTER": 284.6537,
    "MEAN_ANOMALY": 75.4189,
    "EPHEMERIS_TYPE": 0,
    "CLASSIFICATION_TYPE": "U",
    "NORAD_CAT_ID": 59499,
    "ELEMENT_SET_NO": 999,
    "REV_AT_EPOCH": 6108,
    "BSTAR": 6.7732e-05,
    "MEAN_MOTION_DOT": 2.526e-05,
    "MEAN_MOTION_DDOT": 0
  },
  {
    "OBJECT_NAME": "STARLINK-31512",
    "OBJECT_ID": "2024-071S",
    "EPOCH": "2025-05-06T01:04:29.383392",
    "MEAN_MOTION": 15.40683196,
    "ECCENTRICITY": 6.61e-05,
    "INCLINATION": 43.0023,
    "RA_OF_ASC_NODE": 242.8372,
    "ARG_OF_PERICENTER": 284.6337,
    "MEAN_ANOMALY": 75.4446,
    "EPHEMERIS_TYPE": 0,
    "CLASSIFICATION_TYPE": "U",
    "NORAD_CAT_ID": 59500,
    "ELEMENT_SET_NO": 999,
    "REV_AT_EPOCH": 6152,
    "BSTAR": 6.6025e-06,
    "MEAN_MOTION_DOT": -2.7e-07,
    "MEAN_MOTION_DDOT": 0
  },
  {
    "OBJECT_NAME": "STARLINK-31458",
    "OBJECT_ID": "2024-071T",
    "EPOCH": "2025-05-06T02:46:48.067968",
    "MEAN_MOTION": 15.40705883,
    "ECCENTRICITY": 0.0002091,
    "INCLINATION": 43.0075,
    "RA_OF_ASC_NODE": 280.4415,
    "ARG_OF_PERICENTER": 273.1956,
    "MEAN_ANOMALY": 86.8662,
    "EPHEMERIS_TYPE": 0,
    "CLASSIFICATION_TYPE": "U",
    "NORAD_CAT_ID": 59501,
    "ELEMENT_SET_NO": 999,
    "REV_AT_EPOCH": 6108,
    "BSTAR": -3.7292e-05,
    "MEAN_MOTION_DOT": -1.862e-05,
    "MEAN_MOTION_DDOT": 0
  },
  {
    "OBJECT_NAME": "STARLINK-31357",
    "OBJECT_ID": "2024-071U",
    "EPOCH": "2025-05-05T21:47:23.669376",
    "MEAN_MOTION": 15.40682127,
    "ECCENTRICITY": 0.0001148,
    "INCLINATION": 43.0006,
    "RA_OF_ASC_NODE": 281.4611,
    "ARG_OF_PERICENTER": 268.3145,
    "MEAN_ANOMALY": 91.758,
    "EPHEMERIS_TYPE": 0,
    "CLASSIFICATION_TYPE": "U",
    "NORAD_CAT_ID": 59502,
    "ELEMENT_SET_NO": 999,
    "REV_AT_EPOCH": 6111,
    "BSTAR": 2.9541e-05,
    "MEAN_MOTION_DOT": 9.3e-06,
    "MEAN_MOTION_DDOT": 0
  },
  {
    "OBJECT_NAME": "STARLINK-31508",
    "OBJECT_ID": "2024-071V",
    "EPOCH": "2025-05-05T21:40:53.257152",
    "MEAN_MOTION": 15.40726695,
    "ECCENTRICITY": 0.0001667,
    "INCLINATION": 43.0043,
    "RA_OF_ASC_NODE": 281.4255,
    "ARG_OF_PERICENTER": 261.1053,
    "MEAN_ANOMALY": 98.9615,
    "EPHEMERIS_TYPE": 0,
    "CLASSIFICATION_TYPE": "U",
    "NORAD_CAT_ID": 59503,
    "ELEMENT_SET_NO": 999,
    "REV_AT_EPOCH": 6105,
    "BSTAR": 0.00014832,
    "MEAN_MOTION_DOT": 5.902e-05,
    "MEAN_MOTION_DDOT": 0
  },
  {
    "OBJECT_NAME": "STARLINK-31535",
    "OBJECT_ID": "2024-071W",
    "EPOCH": "2025-05-05T21:38:00.143520",
    "MEAN_MOTION": 15.27587649,
    "ECCENTRICITY": 0.0001332,
    "INCLINATION": 43.002,
    "RA_OF_ASC_NODE": 285.7272,
    "ARG_OF_PERICENTER": 238.5726,
    "MEAN_ANOMALY": 121.4995,
    "EPHEMERIS_TYPE": 0,
    "CLASSIFICATION_TYPE": "U",
    "NORAD_CAT_ID": 59504,
    "ELEMENT_SET_NO": 999,
    "REV_AT_EPOCH": 6100,
    "BSTAR": 0.00013286,
    "MEAN_MOTION_DOT": 3.396e-05,
    "MEAN_MOTION_DDOT": 0
  },
  {
    "OBJECT_NAME": "STARLINK-31533",
    "OBJECT_ID": "2024-071X",
    "EPOCH": "2025-05-05T20:01:08.156352",
    "MEAN_MOTION": 15.40691465,
    "ECCENTRICITY": 0.0001518,
    "INCLINATION": 43.0008,
    "RA_OF_ASC_NODE": 281.7625,
    "ARG_OF_PERICENTER": 276.8919,
    "MEAN_ANOMALY": 83.1765,
    "EPHEMERIS_TYPE": 0,
    "CLASSIFICATION_TYPE": "U",
    "NORAD_CAT_ID": 59505,
    "ELEMENT_SET_NO": 999,
    "REV_AT_EPOCH": 6108,
    "BSTAR": 5.7711e-05,
    "MEAN_MOTION_DOT": 2.107e-05,
    "MEAN_MOTION_DDOT": 0
  },
  {
    "OBJECT_NAME": "STARLINK-31524",
    "OBJECT_ID": "2024-071Y",
    "EPOCH": "2025-05-06T02:56:43.737216",
    "MEAN_MOTION": 15.28434869,
    "ECCENTRICITY": 0.0001406,
    "INCLINATION": 43.0012,
    "RA_OF_ASC_NODE": 269.9182,
    "ARG_OF_PERICENTER": 291.8405,
    "MEAN_ANOMALY": 68.2297,
    "EPHEMERIS_TYPE": 0,
    "CLASSIFICATION_TYPE": "U",
    "NORAD_CAT_ID": 59506,
    "ELEMENT_SET_NO": 999,
    "REV_AT_EPOCH": 6121,
    "BSTAR": -2.3877e-06,
    "MEAN_MOTION_DOT": -3.32e-06,
    "MEAN_MOTION_DDOT": 0
  },
  {
    "OBJECT_NAME": "STARLINK-31635",
    "OBJECT_ID": "2024-073A",
    "EPOCH": "2025-05-06T01:41:12.195456",
    "MEAN_MOTION": 15.27581594,
    "ECCENTRICITY": 3.97e-05,
    "INCLINATION": 42.9988,
    "RA_OF_ASC_NODE": 254.9139,
    "ARG_OF_PERICENTER": 268.8359,
    "MEAN_ANOMALY": 91.2447,
    "EPHEMERIS_TYPE": 0,
    "CLASSIFICATION_TYPE": "U",
    "NORAD_CAT_ID": 59511,
    "ELEMENT_SET_NO": 999,
    "REV_AT_EPOCH": 6035,
    "BSTAR": 5.7917e-05,
    "MEAN_MOTION_DOT": 1.332e-05,
    "MEAN_MOTION_DDOT": 0
  },
  {
    "OBJECT_NAME": "STARLINK-31650",
    "OBJECT_ID": "2024-073B",
    "EPOCH": "2025-05-06T00:58:53.950080",
    "MEAN_MOTION": 15.27548831,
    "ECCENTRICITY": 6.15e-05,
    "INCLINATION": 42.9969,
    "RA_OF_ASC_NODE": 255.5524,
    "ARG_OF_PERICENTER": 61.8359,
    "MEAN_ANOMALY": 298.2555,
    "EPHEMERIS_TYPE": 0,
    "CLASSIFICATION_TYPE": "U",
    "NORAD_CAT_ID": 59512,
    "ELEMENT_SET_NO": 999,
    "REV_AT_EPOCH": 6033,
    "BSTAR": -0.00011044,
    "MEAN_MOTION_DOT": -3.296e-05,
    "MEAN_MOTION_DDOT": 0
  },
  {
    "OBJECT_NAME": "STARLINK-31658",
    "OBJECT_ID": "2024-073C",
    "EPOCH": "2025-05-05T22:00:00.999936",
    "MEAN_MOTION": 15.36723521,
    "ECCENTRICITY": 0.0001678,
    "INCLINATION": 43.0001,
    "RA_OF_ASC_NODE": 216.1974,
    "ARG_OF_PERICENTER": 275.4276,
    "MEAN_ANOMALY": 193.8171,
    "EPHEMERIS_TYPE": 0,
    "CLASSIFICATION_TYPE": "U",
    "NORAD_CAT_ID": 59513,
    "ELEMENT_SET_NO": 999,
    "REV_AT_EPOCH": 580,
    "BSTAR": -0.019103,
    "MEAN_MOTION_DOT": -0.00651794,
    "MEAN_MOTION_DDOT": 0
  },
  {
    "OBJECT_NAME": "STARLINK-31669",
    "OBJECT_ID": "2024-073E",
    "EPOCH": "2025-05-06T01:56:00.089376",
    "MEAN_MOTION": 15.27565353,
    "ECCENTRICITY": 0.0002915,
    "INCLINATION": 43.0086,
    "RA_OF_ASC_NODE": 254.9925,
    "ARG_OF_PERICENTER": 269.8422,
    "MEAN_ANOMALY": 90.2096,
    "EPHEMERIS_TYPE": 0,
    "CLASSIFICATION_TYPE": "U",
    "NORAD_CAT_ID": 59515,
    "ELEMENT_SET_NO": 999,
    "REV_AT_EPOCH": 6035,
    "BSTAR": 4.9701e-05,
    "MEAN_MOTION_DOT": 1.104e-05,
    "MEAN_MOTION_DDOT": 0
  },
  {
    "OBJECT_NAME": "STARLINK-31671",
    "OBJECT_ID": "2024-073F",
    "EPOCH": "2025-05-06T01:13:40.715616",
    "MEAN_MOTION": 15.27549044,
    "ECCENTRICITY": 0.0001522,
    "INCLINATION": 43.0015,
    "RA_OF_ASC_NODE": 255.6213,
    "ARG_OF_PERICENTER": 255.3991,
    "MEAN_ANOMALY": 104.6692,
    "EPHEMERIS_TYPE": 0,
    "CLASSIFICATION_TYPE": "U",
    "NORAD_CAT_ID": 59516,
    "ELEMENT_SET_NO": 999,
    "REV_AT_EPOCH": 6035,
    "BSTAR": -0.00014246,
    "MEAN_MOTION_DOT": -4.176e-05,
    "MEAN_MOTION_DDOT": 0
  },
  {
    "OBJECT_NAME": "STARLINK-31674",
    "OBJECT_ID": "2024-073G",
    "EPOCH": "2025-05-05T15:13:32.792448",
    "MEAN_MOTION": 15.27595195,
    "ECCENTRICITY": 0.0001144,
    "INCLINATION": 43.0013,
    "RA_OF_ASC_NODE": 257.6621,
    "ARG_OF_PERICENTER": 265.444,
    "MEAN_ANOMALY": 94.6281,
    "EPHEMERIS_TYPE": 0,
    "CLASSIFICATION_TYPE": "U",
    "NORAD_CAT_ID": 59517,
    "ELEMENT_SET_NO": 999,
    "REV_AT_EPOCH": 5906,
    "BSTAR": 0.00018773,
    "MEAN_MOTION_DOT": 4.91e-05,
    "MEAN_MOTION_DDOT": 0
  },
  {
    "OBJECT_NAME": "STARLINK-31679",
    "OBJECT_ID": "2024-073J",
    "EPOCH": "2025-05-06T01:09:45.052704",
    "MEAN_MOTION": 15.40680254,
    "ECCENTRICITY": 6.04e-05,
    "INCLINATION": 43.0005,
    "RA_OF_ASC_NODE": 249.5529,
    "ARG_OF_PERICENTER": 225.7355,
    "MEAN_ANOMALY": 134.3452,
    "EPHEMERIS_TYPE": 0,
    "CLASSIFICATION_TYPE": "U",
    "NORAD_CAT_ID": 59519,
    "ELEMENT_SET_NO": 999,
    "REV_AT_EPOCH": 6041,
    "BSTAR": 9.296e-06,
    "MEAN_MOTION_DOT": 8.5e-07,
    "MEAN_MOTION_DDOT": 0
  },
  {
    "OBJECT_NAME": "STARLINK-31370",
    "OBJECT_ID": "2024-073K",
    "EPOCH": "2025-05-05T18:53:21.061248",
    "MEAN_MOTION": 15.27556286,
    "ECCENTRICITY": 0.0001795,
    "INCLINATION": 43.0039,
    "RA_OF_ASC_NODE": 257.0867,
    "ARG_OF_PERICENTER": 292.2876,
    "MEAN_ANOMALY": 67.7785,
    "EPHEMERIS_TYPE": 0,
    "CLASSIFICATION_TYPE": "U",
    "NORAD_CAT_ID": 59520,
    "ELEMENT_SET_NO": 999,
    "REV_AT_EPOCH": 5908,
    "BSTAR": -2.4005e-05,
    "MEAN_MOTION_DOT": -9.22e-06,
    "MEAN_MOTION_DDOT": 0
  },
  {
    "OBJECT_NAME": "STARLINK-31404",
    "OBJECT_ID": "2024-073L",
    "EPOCH": "2025-05-06T01:24:47.093760",
    "MEAN_MOTION": 15.27560719,
    "ECCENTRICITY": 8.27e-05,
    "INCLINATION": 42.9998,
    "RA_OF_ASC_NODE": 255.6755,
    "ARG_OF_PERICENTER": 53.4334,
    "MEAN_ANOMALY": 306.6594,
    "EPHEMERIS_TYPE": 0,
    "CLASSIFICATION_TYPE": "U",
    "NORAD_CAT_ID": 59521,
    "ELEMENT_SET_NO": 999,
    "REV_AT_EPOCH": 6034,
    "BSTAR": 2.8522e-05,
    "MEAN_MOTION_DOT": 5.23e-06,
    "MEAN_MOTION_DDOT": 0
  }
]